{"fetched_at":"2026-03-29T16:36:15Z","count":15609,"tles":[{"name":"STARLINK-11283 [DTC]","line1":"1 60993U 24158D   26087.75128131  .00004131  00000+0  38921-4 0  9993","line2":"2 60993  53.1608 187.6528 0001283  90.7366 269.3799 15.69723522 90583","category":"Starlink"}]}